H1 CPF 01  gfz 2022 04 04 00  5933 terrasarx 
H2 0702601  6201 31698    2022 04 03 12 59 42 2022 04 08 00 00 42   120 1 1  0 0 0
H9
10 0 59675  69102.000000  0   -6542930.843   2124454.609   -384031.237
10 0 59675  69222.000000  0   -6382733.211   2258906.671  -1281868.510
10 0 59675  69342.000000  0   -6109115.946   2350122.325  -2157166.212
10 0 59675  69462.000000  0   -5727733.755   2394607.280  -2994563.158
10 0 59675  69582.000000  0   -5246178.435   2389806.470  -3779396.885
10 0 59675  69702.000000  0   -4673816.733   2334176.746  -4497961.688
10 0 59675  69822.000000  0   -4021596.913   2227237.953  -5137745.109
10 0 59675  69942.000000  0   -3301829.205   2069601.829  -5687638.585
10 0 59675  70062.000000  0   -2527946.971   1862978.578  -6138120.507
10 0 59675  70182.000000  0   -1714251.775   1610161.004  -6481411.192
10 0 59675  70302.000000  0    -875647.162   1314986.439  -6711594.907
10 0 59675  70422.000000  0     -27369.033    982277.881  -6824710.848
10 0 59675  70542.000000  0     815284.624    617766.086  -6818813.264
10 0 59675  70662.000000  0    1637222.883    227993.019  -6694003.608
10 0 59675  70782.000000  0    2423827.039   -179803.132  -6452428.472
10 0 59675  70902.000000  0    3161204.910   -597818.364  -6098246.825
10 0 59675  71022.000000  0    3836433.671  -1017827.756  -5637565.302
10 0 59675  71142.000000  0    4437785.268  -1431342.167  -5078343.291
10 0 59675  71262.000000  0    4954934.537  -1829776.331  -4430267.632
10 0 59675  71382.000000  0    5379143.460  -2204624.118  -3704595.455
10 0 59675  71502.000000  0    5703418.402  -2547637.272  -2913967.788
10 0 59675  71622.000000  0    5922636.387  -2851004.226  -2072194.963
10 0 59675  71742.000000  0    6033635.931  -3107524.587  -1194017.276
10 0 59675  71862.000000  0    6035270.628  -3310774.969   -294845.819
10 0 59675  71982.000000  0    5928423.015  -3455262.226    609512.755
10 0 59675  72102.000000  0    5715978.312  -3536559.986   1503141.030
10 0 59675  72222.000000  0    5402757.025  -3551424.181   2370301.381
10 0 59675  72342.000000  0    4995406.534  -3497883.517   3195721.560
10 0 59675  72462.000000  0    4502257.998  -3375303.934   3964870.682
10 0 59675  72582.000000  0    3933151.783  -3184424.836   4664219.265
10 0 59675  72702.000000  0    3299234.730  -2927368.225   5281480.453
10 0 59675  72822.000000  0    2612733.815  -2607617.834   5805824.720
10 0 59675  72942.000000  0    1886714.367  -2229970.677   6228066.050
10 0 59675  73062.000000  0    1134826.554  -1800462.930   6540817.380
10 0 59675  73182.000000  0     371045.668  -1326271.020   6738613.763
10 0 59675  73302.000000  0    -390588.710   -815589.612   6818001.929
10 0 59675  73422.000000  0   -1136230.144   -277489.017   6777596.038
10 0 59675  73542.000000  0   -1852475.803    278245.585   6618100.212
10 0 59675  73662.000000  0   -2526606.403    841291.551   6342297.167
10 0 59675  73782.000000  0   -3146812.182   1400979.509   5955003.007
10 0 59675  73902.000000  0   -3702401.558   1946494.573   5462988.838
10 0 59675  74022.000000  0   -4183989.870   2467085.451   4874869.267
10 0 59675  74142.000000  0   -4583664.052   2952278.100   4200957.383
10 0 59675  74262.000000  0   -4895119.311   3392087.865   3453087.286
10 0 59675  74382.000000  0   -5113764.465   3777226.979   2644408.486
10 0 59675  74502.000000  0   -5236794.341   4099302.988   1789154.600
10 0 59675  74622.000000  0   -5263227.341   4351002.967    902388.937
10 0 59675  74742.000000  0   -5193904.902   4526257.652      -268.201
10 0 59675  74862.000000  0   -5031454.149   4620381.028   -902922.273
10 0 59675  74982.000000  0   -4780214.945   4630183.885  -1789693.970
10 0 59675  75102.000000  0   -4446130.980   4554056.234  -2645008.164
10 0 59675  75222.000000  0   -4036609.504   4392015.849  -3453874.220
10 0 59675  75342.000000  0   -3560353.284   4145723.662  -4202151.653
10 0 59675  75462.000000  0   -3027170.511   3818466.362  -4876795.423
10 0 59675  75582.000000  0   -2447768.673   3415107.594  -5466076.954
10 0 59675  75702.000000  0   -1833537.438   2942010.595  -5959780.135
10 0 59675  75822.000000  0   -1196322.814   2406931.835  -6349369.057
10 0 59675  75942.000000  0    -548198.954   1818888.901  -6628123.700
10 0 59675  76062.000000  0      98757.604   1188007.107  -6791244.542
10 0 59675  76182.000000  0     732687.511    525346.190  -6835926.346
10 0 59675  76302.000000  0    1342161.233   -157289.817  -6761402.544
10 0 59675  76422.000000  0    1916380.801   -847558.866  -6568955.778
10 0 59675  76542.000000  0    2445366.150  -1532798.096  -6261897.720
10 0 59675  76662.000000  0    2920126.180  -2200250.256  -5845518.295
10 0 59675  76782.000000  0    3332811.239  -2837296.269  -5327005.278
10 0 59675  76902.000000  0    3676846.524  -3431693.808  -4715331.862
10 0 59675  77022.000000  0    3947040.169  -3971813.281  -4021110.236
10 0 59675  77142.000000  0    4139665.453  -4446866.952  -3256417.882
10 0 59675  77262.000000  0    4252517.093  -4847129.050  -2434595.949
10 0 59675  77382.000000  0    4284938.629  -5164141.139  -1570020.727
10 0 59675  77502.000000  0    4237817.663  -5390896.819   -677851.755
10 0 59675  77622.000000  0    4113550.300  -5521999.684    226237.929
10 0 59675  77742.000000  0    3915974.239  -5553791.176   1126343.604
10 0 59675  77862.000000  0    3650272.821  -5484444.367   2006617.651
10 0 59675  77982.000000  0    3322850.602  -5314019.342   2851558.063
10 0 59675  78102.000000  0    2941184.802  -5044481.501   3646288.491
10 0 59675  78222.000000  0    2513657.291  -4679680.846   4376826.088
10 0 59675  78342.000000  0    2049371.231  -4225293.529   5030330.851
10 0 59675  78462.000000  0    1557956.441  -3688727.181   5595331.611
10 0 59675  78582.000000  0    1049368.349  -3078992.568   6061925.638
10 0 59675  78702.000000  0     533684.550  -2406544.721   6421946.762
10 0 59675  78822.000000  0      20904.694  -1683098.446   6669101.237
10 0 59675  78942.000000  0    -479242.443   -921421.669   6799071.512
10 0 59675  79062.000000  0    -957482.262   -135108.388   6809588.079
10 0 59675  79182.000000  0   -1405165.454    661664.386   6700466.394
10 0 59675  79302.000000  0   -1814423.913   1454391.662   6473609.612
10 0 59675  79422.000000  0   -2178309.127   2228503.485   6132977.517
10 0 59675  79542.000000  0   -2490911.011   2969632.510   5684521.755
10 0 59675  79662.000000  0   -2747455.076   3663881.991   5136087.890
10 0 59675  79782.000000  0   -2944377.692   4298089.876   4497285.128
10 0 59675  79902.000000  0   -3079376.688   4860084.225   3779323.163
10 0 59675  80022.000000  0   -3151435.963   5338924.423   2994818.546
10 0 59675  80142.000000  0   -3160823.179   5725121.821   2157572.787
10 0 59675  80262.000000  0   -3109061.072   6010834.242   1282326.963
10 0 59675  80382.000000  0   -2998872.247   6190030.639    384497.629
10 0 59675  80502.000000  0   -2834098.874   6258621.689   -520102.061
10 0 59675  80622.000000  0   -2619599.933   6214551.719  -1415550.424
10 0 59675  80742.000000  0   -2361126.888   6057848.295  -2286109.056
10 0 59675  80862.000000  0   -2065180.348   5790626.237  -3116507.151
10 0 59675  80982.000000  0   -1738854.746   5417052.387  -3892211.595
10 0 59675  81102.000000  0   -1389674.772   4943270.498  -4599681.869
10 0 59675  81222.000000  0   -1025427.325   4377288.453  -5226602.131
10 0 59675  81342.000000  0    -653992.867   3728833.289  -5762088.797
10 0 59675  81462.000000  0    -283178.995   3009175.155  -6196871.331
10 0 59675  81582.000000  0      79439.717   2230923.949  -6523441.747
10 0 59675  81702.000000  0     426671.524   1407805.833  -6736172.130
10 0 59675  81822.000000  0     751845.449    554422.273  -6831402.785
10 0 59675  81942.000000  0    1048935.820   -314005.365  -6807498.193
10 0 59675  82062.000000  0    1312670.578  -1181902.262  -6664871.243
10 0 59675  82182.000000  0    1538622.146  -2033612.032  -6405975.449
10 0 59675  82302.000000  0    1723280.734  -2853671.470  -6035268.009
10 0 59675  82422.000000  0    1864108.981  -3627086.614  -5559142.822
10 0 59675  82542.000000  0    1959576.336  -4339607.506  -4985831.036
10 0 59675  82662.000000  0    2009172.723  -4977992.164  -4325268.164
10 0 59675  82782.000000  0    2013401.484  -5530256.928  -3588933.105
10 0 59675  82902.000000  0    1973751.039  -5985910.460  -2789657.958
10 0 59675  83022.000000  0    1892644.912  -6336164.409  -1941410.186
10 0 59675  83142.000000  0    1773371.225  -6574113.695  -1059049.643
10 0 59675  83262.000000  0    1619994.216  -6694883.991   -158067.027
10 0 59675  83382.000000  0    1437248.691  -6695738.976    745695.200
10 0 59675  83502.000000  0    1230419.495  -6576145.777   1636327.597
10 0 59675  83622.000000  0    1005209.452  -6337797.219   2498144.474
10 0 59675  83742.000000  0     767599.560  -5984585.914   3315969.219
10 0 59675  83862.000000  0     523703.484  -5522535.352   4075408.013
10 0 59675  83982.000000  0     279622.035  -4959689.595   4763106.965
10 0 59675  84102.000000  0      41300.306  -4305963.869   5366988.570
10 0 59675  84222.000000  0    -185608.491  -3572959.794   5876462.521
10 0 59675  84342.000000  0    -395869.233  -2773749.444   6282607.891
10 0 59675  84462.000000  0    -584779.511  -1922634.504   6578321.909
10 0 59675  84582.000000  0    -748269.885  -1034887.408   6758437.372
10 0 59675  84702.000000  0    -882988.162   -126475.740   6819808.855
10 0 59675  84822.000000  0    -986366.707    786225.872   6761364.727
10 0 59675  84942.000000  0   -1056670.741   1686730.646   6584124.452
10 0 59675  85062.000000  0   -1093027.091   2558736.722   6291181.792
10 0 59675  85182.000000  0   -1095433.761   3386422.206   5887654.341
10 0 59675  85302.000000  0   -1064750.033   4154734.166   5380599.260
10 0 59675  85422.000000  0   -1002666.286   4849666.020   4778895.964
10 0 59675  85542.000000  0    -911655.655   5458520.200   4093096.678
99
